NORAD_CAT_ID,OBJECT_NAME,OBJECT_TYPE,EPOCH,MEAN_MOTION,ECCENTRICITY,INCLINATION,RA_OF_ASC_NODE,ARG_OF_PERICENTER,MEAN_ANOMALY,BSTAR,MEAN_MOTION_DOT,MEAN_MOTION_DDOT,TLE_LINE0,TLE_LINE1,TLE_LINE2,SEMIMAJOR_AXIS,PERIOD,APOGEE,PERIGEE,DECAYED
51853.0,STARLINK-3539,PAYLOAD,2022-05-24 22:00:00,15.08815264,0.0001855,53.2145,115.6075,50.3964,351.8204,0.0017147,0.00027089,0.0,0 STARLINK-3539,1 51853U 22022B   22144.91667824  .00027089  00000-0  17147-2 0  9994,2 51853  53.2145 115.6075 0001855  50.3964 351.8204 15.08815264  1302,6917.956,95.439,541.104,538.538,0.0
51853.0,STARLINK-3539,PAYLOAD,2022-05-25 06:00:00,15.08823645,0.000206,53.2145,114.1129,46.0601,7.7391,0.00083245,0.00012979,0.0,0 STARLINK-3539,1 51853U 22022B   22145.25001157  .00012979  00000-0  83245-3 0  9998,2 51853  53.2145 114.1129 0002060  46.0601   7.7391 15.08823645 13955,6917.93,95.439,541.22,538.37,0.0
51853.0,STARLINK-3539,PAYLOAD,2022-05-25 14:00:01,15.08852625,0.0001977,53.2144,112.6153,46.3651,19.013,-0.0014106,-0.00022676,0.0,0 STARLINK-3539,1 51853U 22022B   22145.58334491 -.00022676  00000-0 -14106-2 0  9990,2 51853  53.2144 112.6153 0001977  46.3651  19.0130 15.08852625  1301,6917.842,95.437,541.0740000000002,538.339,0.0
51853.0,STARLINK-3539,PAYLOAD,2022-05-25 22:00:00,15.08858045,0.0001909,53.2147,111.1181,50.5701,26.4049,-0.0011860999999999,-0.00019125,0.0,0 STARLINK-3539,1 51853U 22022B   22145.91667824 -.00019125  00000-0 -11861-2 0  9996,2 51853  53.2147 111.1181 0001909  50.5701  26.4049 15.08858045  1300,6917.825,95.436,541.011,538.37,0.0
51853.0,STARLINK-3539,PAYLOAD,2022-05-26 14:00:01,15.08860542,0.0001939,53.2149,108.1257,45.2968,54.8677,-0.0030777,-0.00048966,0.0,0 STARLINK-3539,1 51853U 22022B   22146.58334491 -.00048966  00000-0 -30777-2 0  9993,2 51853  53.2149 108.1257 0001939  45.2968  54.8677 15.08860542 14155,6917.818,95.436,541.024,538.341,0.0
51853.0,STARLINK-3539,PAYLOAD,2022-05-26 22:00:00,15.08826545,0.0001855,53.2154,106.6286,48.6482,63.1109,0.00042721,6.515e-05,0.0,0 STARLINK-3539,1 51853U 22022B   22146.91667824  .00006515  00000-0  42721-3 0  9994,2 51853  53.2154 106.6286 0001855  48.6482  63.1109 15.08826545  1302,6917.922,95.438,541.07,538.503,0.0
51853.0,STARLINK-3539,PAYLOAD,2022-05-27 02:16:35,15.0883554,0.000197,53.2159,105.8291,46.4321,313.6834,0.00015436,2.169e-05,0.0,0 STARLINK-3539,1 51853U 22022B   22147.09485828  .00002169  00000-0  15436-3 0  9990,2 51853  53.2159 105.8291 0001970  46.4321 313.6834 15.08835540 14239,6917.894,95.438,541.122,538.396,0.0
51853.0,STARLINK-3539,PAYLOAD,2022-05-27 14:00:01,15.08841847,0.0001932,53.2155,103.6363,45.8024,89.1101,-0.0011402,-0.0001839,0.0,0 STARLINK-3539,1 51853U 22022B   22147.58334491 -.00018390  00000-0 -11402-2 0  9996,2 51853  53.2155 103.6363 0001932  45.8024  89.1101 15.08841847  1305,6917.875,95.437,541.076,538.403,0.0
51853.0,STARLINK-3539,PAYLOAD,2022-05-27 22:00:01,15.08846649,0.0001904,53.216,102.1394,50.2273,96.3365,0.00044357,6.78e-05,0.0,0 STARLINK-3539,1 51853U 22022B   22147.91668981  .00006780  00000-0  44357-3 0  9991,2 51853  53.2160 102.1394 0001904  50.2273  96.3365 15.08846649  1301,6917.86,95.437,541.0419999999998,538.408,0.0
51853.0,STARLINK-3539,PAYLOAD,2022-05-28 06:00:02,15.08843613,0.0002057,53.216,100.6447,44.4857,113.6934,0.0013491,0.0002125,0.0,0 STARLINK-3539,1 51853U 22022B   22148.25002315  .00021250  00000-0  13491-2 0  9995,2 51853  53.2160 100.6447 0002057  44.4857 113.6934 15.08843613 14404,6917.869000000002,95.437,541.1569999999998,538.311,0.0
51853.0,STARLINK-3539,PAYLOAD,2022-05-28 13:15:04,15.08844338,0.0001984,53.2161,99.2866,48.0305,312.0856,0.00011068,1.474e-05,0.0,0 STARLINK-3539,1 51853U 22022B   22148.55213630  .00001474  00000-0  11068-3 0  9997,2 51853  53.2161  99.2866 0001984  48.0305 312.0856 15.08844338 14457,6917.8669999999975,95.437,541.105,538.36,0.0
51853.0,STARLINK-3539,PAYLOAD,2022-05-28 22:00:00,15.08860133,0.0001788,53.2165,97.6506,48.9004,132.4031,-0.00097492,-0.00015779,0.0,0 STARLINK-3539,1 51853U 22022B   22148.91667824 -.00015779  00000-0 -97492-3 0  9995,2 51853  53.2165  97.6506 0001788  48.9004 132.4031 15.08860133 14507,6917.819,95.436,540.9209999999998,538.447,0.0
51853.0,STARLINK-3539,PAYLOAD,2022-05-29 13:05:52,15.08829107,0.0001961,53.2172,94.8277,48.5016,311.6144,0.00012214,1.656e-05,0.0,0 STARLINK-3539,1 51853U 22022B   22149.54574605  .00001656  00000-0  12214-3 0  9995,2 51853  53.2172  94.8277 0001961  48.5016 311.6144 15.08829107 14604,6917.9140000000025,95.438,541.135,538.422,0.0
51853.0,STARLINK-3539,PAYLOAD,2022-05-29 19:27:24,15.08835691,0.0001943,53.2172,93.6381,48.4039,311.712,6.3195e-05,7.18e-06,0.0,0 STARLINK-3539,1 51853U 22022B   22149.81070291  .00000718  00000-0  63195-4 0  9990,2 51853  53.2172  93.6381 0001943  48.4039 311.7120 15.08835691 14645,6917.894,95.438,541.1030000000002,538.414,0.0
51853.0,STARLINK-3539,PAYLOAD,2022-05-29 22:00:00,15.08851584,0.0001781999999999,53.2165,93.1618,50.7161,165.3685,-0.0029603,-0.00047109,0.0,0 STARLINK-3539,1 51853U 22022B   22149.91667824 -.00047109  00000-0 -29603-2 0  9996,2 51853  53.2165  93.1618 0001782  50.7161 165.3685 15.08851584 14657,6917.845,95.437,540.943,538.477,0.0
51853.0,STARLINK-3539,PAYLOAD,2022-05-30 12:00:00,15.0883882,0.0001904,53.216,90.5437,48.9731,97.3744,-0.0014885,-0.00023899,0.0,0 STARLINK-3539,1 51853U 22022B   22150.50001157 -.00023899  00000-0 -14885-2 0  9990,2 51853  53.2160  90.5437 0001904  48.9731  97.3744 15.08838820 14748,6917.884,95.438,541.066,538.432,0.0
51853.0,STARLINK-3539,PAYLOAD,2022-05-30 12:56:40,15.08828451,0.0001861,53.2174,90.3682,47.7525,312.3625,-8.2167e-05,-1.595e-05,0.0,0 STARLINK-3539,1 51853U 22022B   22150.53935299 -.00001595  00000-0 -82167-4 0  9995,2 51853  53.2174  90.3682 0001861  47.7525 312.3625 15.08828451 14751,6917.916,95.438,541.068,538.493,0.0
51853.0,STARLINK-3539,PAYLOAD,2022-05-30 22:00:00,15.08844627,0.0001868,53.2163,88.6733,53.9235,196.8934,-0.00071084,-0.00011585,0.0,0 STARLINK-3539,1 51853U 22022B   22150.91667824 -.00011585  00000-0 -71084-3 0  9998,2 51853  53.2163  88.6733 0001868  53.9235 196.8934 15.08844627  1308,6917.866,95.437,541.024,538.439,0.0
51853.0,STARLINK-3539,PAYLOAD,2022-05-31 04:50:31,15.08836532,0.0001926,53.2174,87.3932,49.8958,310.2203,-3.3475e-06,-3.41e-06,0.0,0 STARLINK-3539,1 51853U 22022B   22151.20174911 -.00000341  00000-0 -33475-5 0  9993,2 51853  53.2174  87.3932 0001926  49.8958 310.2203 15.08836532 14859,6917.891,95.438,541.0880000000002,538.424,0.0
51853.0,STARLINK-3539,PAYLOAD,2022-05-31 06:00:02,15.08813124,0.0002042,53.2161,87.1784,48.3201,214.1576,0.0029637,0.00047161,0.0,0 STARLINK-3539,1 51853U 22022B   22151.25002315  .00047161  00000-0  29637-2 0  9997,2 51853  53.2161  87.1784 0002042  48.3201 214.1576 15.08813124 14850,6917.9630000000025,95.439,541.24,538.415,0.0
51853.0,STARLINK-3539,PAYLOAD,2022-05-31 22:00:00,15.08866297,0.0001934,53.2161,84.1845,55.1002,230.4996,-0.0010202,-0.000165,0.0,0 STARLINK-3539,1 51853U 22022B   22151.91667824 -.00016500  00000-0 -10202-2 0  9995,2 51853  53.2161  84.1845 0001934  55.1002 230.4996 15.08866297 14956,6917.8,95.436,541.003,538.327,0.0
51853.0,STARLINK-3539,PAYLOAD,2022-06-01 20:00:01,15.08859481,0.0001864,53.2163,80.0692,54.9835,172.5301,-0.0023667,-0.00037778,0.0,0 STARLINK-3539,1 51853U 22022B   22152.83334491 -.00037778  00000-0 -23667-2 0  9997,2 51853  53.2163  80.0692 0001864  54.9835 172.5301 15.08859481  1304,6917.821,95.436,540.975,538.396,0.0
51853.0,STARLINK-3539,PAYLOAD,2022-06-03 04:22:52,15.08844001,0.0001952,53.2171,74.0124,52.0572,308.0597,-4.3248e-05,-9.77e-06,0.0,0 STARLINK-3539,1 51853U 22022B   22154.18254672 -.00000977  00000-0 -43248-4 0  9999,2 51853  53.2171  74.0124 0001952  52.0572 308.0597 15.08844001 15301,6917.868,95.437,541.0840000000002,538.383,0.0
51853.0,STARLINK-3539,PAYLOAD,2022-06-03 05:58:15,15.08845365,0.0001963,53.2172,73.7152,51.7492,308.3677,-3.3825e-05,-8.27e-06,0.0,0 STARLINK-3539,1 51853U 22022B   22154.24878523 -.00000827  00000-0 -33825-4 0  9997,2 51853  53.2172  73.7152 0001963  51.7492 308.3677 15.08845365 15315,6917.864000000001,95.437,541.087,538.371,0.0
51853.0,STARLINK-3539,PAYLOAD,2022-06-03 18:41:19,15.08845103,0.0001945,53.2172,71.3361,50.9361,309.1803,7.0727e-05,8.38e-06,0.0,0 STARLINK-3539,1 51853U 22022B   22154.77870024  .00000838  00000-0  70727-4 0  9995,2 51853  53.2172  71.3361 0001945  50.9361 309.1803 15.08845103 15395,6917.865,95.437,541.075,538.384,0.0
51853.0,STARLINK-3539,PAYLOAD,2022-06-04 04:13:38,15.088408,0.0001988,53.2191,69.5545,52.0506,308.0666,4.3625e-05,4.06e-06,0.0,0 STARLINK-3539,1 51853U 22022B   22155.17614469  .00000406  00000-0  43625-4 0  9997,2 51853  53.2191  69.5545 0001988  52.0506 308.0666 15.08840800 15451,6917.878000000002,95.438,541.118,538.368,0.0
51853.0,STARLINK-3539,PAYLOAD,2022-06-05 22:00:00,15.08852204,0.0001919,53.217,61.7396,53.004,46.4876,-0.0016409,-0.00026317,0.0,0 STARLINK-3539,1 51853U 22022B   22156.91667824 -.00026317  00000-0 -16409-2 0  9992,2 51853  53.2170  61.7396 0001919  53.0040  46.4876 15.08852204 15710,6917.843000000003,95.437,541.036,538.381,0.0
51853.0,STARLINK-3539,PAYLOAD,2022-06-06 14:00:01,15.08825726,0.0001803,53.2165,58.7456,55.646,67.0454,0.0025063,0.0003981,0.0,0 STARLINK-3539,1 51853U 22022B   22157.58334491  .00039810  00000-0  25063-2 0  9993,2 51853  53.2165  58.7456 0001803  55.6460  67.0454 15.08825726 15814,6917.924,95.438,541.036,538.5419999999998,0.0
51853.0,STARLINK-3539,PAYLOAD,2022-06-06 22:00:00,15.0886195,0.0001878,53.2166,57.2504,53.858,80.4291,-0.0037557,-0.00059603,0.0,0 STARLINK-3539,1 51853U 22022B   22157.91667824 -.00059603  00000-0 -37557-2 0  9994,2 51853  53.2166  57.2504 0001878  53.8580  80.4291 15.08861950  1304,6917.813,95.436,540.977,538.379,0.0
